[{"OBJECT_NAME":"STARLINK-30429","OBJECT_ID":"2023-144N","EPOCH":"2026-03-09T00:24:54.111744","MEAN_MOTION":15.26759403,"ECCENTRICITY":0.00012155,"INCLINATION":43.0056,"RA_OF_ASC_NODE":289.0794,"ARG_OF_PERICENTER":320.7626,"MEAN_ANOMALY":39.3137,"EPHEMERIS_TYPE":0,"CLASSIFICATION_TYPE":"U","NORAD_CAT_ID":57876,"ELEMENT_SET_NO":999,"REV_AT_EPOCH":13753,"BSTAR":0.00018839136,"MEAN_MOTION_DOT":4.8e-5,"MEAN_MOTION_DDOT":0},{"OBJECT_NAME":"FLOCK 4G-12","OBJECT_ID":"2025-009S","EPOCH":"2026-03-09T17:16:21.445824","MEAN_MOTION":15.27059194,"ECCENTRICITY":0.00028933,"INCLINATION":97.4059,"RA_OF_ASC_NODE":151.1894,"ARG_OF_PERICENTER":310.1775,"MEAN_ANOMALY":49.9211,"EPHEMERIS_TYPE":0,"CLASSIFICATION_TYPE":"U","NORAD_CAT_ID":62625,"ELEMENT_SET_NO":999,"REV_AT_EPOCH":6371,"BSTAR":0.00043519262,"MEAN_MOTION_DOT":0.00011487,"MEAN_MOTION_DDOT":0}]
